{
"type": "FeatureCollection",
"name": "ice_edge_201911260350",
"crs": { "type": "name", "properties": { "name": "urn:ogc:def:crs:EPSG::32604" } },
"features": [
{ "type": "Feature", "properties": { "id": 201911260350 }, "geometry": { "type": "MultiLineString", "coordinates": [ [ [ 334054.585431644169148, 7777288.459078317508101 ], [ 336048.997519366675988, 7779116.670158729888499 ], [ 336963.103059572807979, 7780280.077209901064634 ], [ 338874.414643640164286, 7781609.685268383473158 ], [ 340204.02270212181611, 7784601.303399967029691 ], [ 341533.630760603467934, 7785764.710451138205826 ], [ 345190.052921427995898, 7784684.403903622180223 ], [ 348514.073067632096354, 7783188.594837830401957 ], [ 350674.686162664787844, 7780363.177713556215167 ], [ 351173.289184595400002, 7782939.293326864950359 ], [ 351422.590695560676977, 7785432.308436517603695 ], [ 351422.590695560676977, 7788174.625057136639953 ], [ 351339.490191905584652, 7790750.740670444443822 ], [ 352669.098250387236476, 7793825.459305683150887 ], [ 355577.615878315875307, 7795902.971897060982883 ], [ 359234.038039140403271, 7797232.579955542460084 ], [ 361976.354659758799244, 7800556.600101746618748 ], [ 364884.872287687379867, 7803548.218233330175281 ], [ 368458.193944856815506, 7806041.23334298375994 ], [ 371449.812076440488454, 7806706.037372224032879 ], [ 374690.731718989496585, 7806872.238379534333944 ], [ 376269.641288436483592, 7808118.745934360660613 ], [ 378845.756901744694915, 7809863.856511117890477 ], [ 381504.973018707940355, 7810030.057518428191543 ], [ 385743.09870511823101, 7811193.464569599367678 ], [ 388734.716836701903958, 7812689.273635392077267 ], [ 391144.631442699872423, 7815099.188241389580071 ], [ 392474.239501181524247, 7816511.896803526207805 ], [ 395964.460654695867561, 7814683.685723113827407 ], [ 398540.576268004078884, 7811858.26859884057194 ], [ 401449.093895932659507, 7810030.057518428191543 ], [ 404357.61152386124013, 7810528.660540359094739 ], [ 406518.22461889393162, 7812439.972124426625669 ], [ 408263.335195651103277, 7813104.776153666898608 ], [ 409592.943254132755101, 7815597.791263320483267 ], [ 410257.747283373551909, 7818173.906876628287137 ], [ 410507.048794338887092, 7820085.218460695818067 ], [ 410340.847787028644234, 7821664.128030142746866 ], [ 412916.963400336855557, 7820334.519971661269665 ], [ 415409.978509989974555, 7818838.710905869491398 ], [ 416656.486064816475846, 7818257.007380283437669 ], [ 419814.305203710391652, 7818672.509898559190333 ], [ 422224.219809708360117, 7819088.012416834942997 ], [ 424218.631897430866957, 7820251.419468006119132 ], [ 425797.541466877795756, 7820417.620475316420197 ], [ 426960.94851804926293, 7821082.424504556693137 ], [ 427875.054058255394921, 7822162.731052073650062 ], [ 429869.466145977843553, 7821913.429541108198464 ], [ 432362.481255630962551, 7821331.726015522144735 ], [ 433858.290321422799025, 7822661.334074003621936 ], [ 436434.405934731010348, 7824905.047672691754997 ] ] ] } }
]
}
