{
"type": "FeatureCollection",
"name": "ice_edge_201911150411",
"crs": { "type": "name", "properties": { "name": "urn:ogc:def:crs:EPSG::32604" } },
"features": [
{ "type": "Feature", "properties": { "id": 201911150411 }, "geometry": { "type": "MultiLineString", "coordinates": [ [ [ 349261.97760052816011, 7759671.152303437702358 ], [ 351007.088177285273559, 7761665.564391160383821 ], [ 352918.399761352688074, 7764075.478997158817947 ], [ 355328.314367350656539, 7766734.695114121772349 ], [ 356741.022929487400688, 7768562.906194534152746 ], [ 358652.334513554756995, 7772801.031880944035947 ], [ 360563.646097622113302, 7777371.559581974521279 ], [ 364967.972791342588607, 7782108.288290315307677 ], [ 366796.183871754852589, 7785099.906421899795532 ], [ 369704.701499683433212, 7788507.027071759104729 ], [ 371782.214091061032377, 7792163.449232582934201 ], [ 375023.133733610040508, 7794822.665349546819925 ], [ 379261.259420020272955, 7797564.98197016492486 ], [ 383499.38510643056361, 7800889.002116369083524 ], [ 383831.78712105093291, 7803548.218233332037926 ], [ 385743.098705118347425, 7805293.32881008926779 ], [ 390812.229428079619538, 7806872.238379536196589 ], [ 396213.762165661260951, 7805210.228306434117258 ], [ 403028.003465379704721, 7803631.318736987188458 ], [ 408761.93821758183185, 7803382.01722602173686 ], [ 413166.264911302307155, 7803298.916722366586328 ], [ 418152.295130608428735, 7805044.027299123816192 ], [ 423636.928371845220681, 7807204.64039415679872 ], [ 431531.4762190800393, 7811027.26356229186058 ], [ 436102.003920110699255, 7814683.685723115690053 ] ] ] } }
]
}
