{
"type": "FeatureCollection",
"name": "ice_edge_201911160341",
"crs": { "type": "name", "properties": { "name": "urn:ogc:def:crs:EPSG::32604" } },
"features": [
{ "type": "Feature", "properties": { "id": 201911160341 }, "geometry": { "type": "MultiLineString", "coordinates": [ [ [ 355826.917389281152282, 7769310.810727427713573 ], [ 358153.731491624028422, 7771055.921304184943438 ], [ 359150.937535485252738, 7773299.634902873076499 ], [ 360314.344586656719912, 7776125.052027146331966 ], [ 361062.249119552667253, 7778451.86612948961556 ], [ 361477.751637828128878, 7781194.182750107720494 ], [ 362641.158688999596052, 7783936.499370725825429 ], [ 364967.972791342472192, 7785930.911458448506892 ], [ 367959.590922926203348, 7789254.931604652665555 ], [ 367627.18890830577584, 7792080.348728925921023 ], [ 365051.073294997564517, 7792745.152758167125285 ], [ 365965.178835203696508, 7796069.172904371283948 ], [ 369455.399988718039822, 7800141.097583470866084 ], [ 373028.721645887475461, 7803797.519744295626879 ], [ 376269.641288436483592, 7807786.343919740989804 ], [ 377765.450354228320066, 7811359.665576909668744 ], [ 380092.264456571196206, 7813437.178168287500739 ], [ 385909.29971242841566, 7819420.414431454613805 ], [ 394385.551085248938762, 7821581.027526487596333 ], [ 400119.485837451007683, 7820168.318964350968599 ], [ 405770.320085997984279, 7824240.243643450550735 ], [ 419565.003692745114677, 7826650.158249448984861 ], [ 436185.104423765675165, 7830722.082928548566997 ], [ 436517.506438386102673, 7830722.082928548566997 ] ] ] } }
]
}
