{
"type": "FeatureCollection",
"name": "ice_edge_201911191748",
"crs": { "type": "name", "properties": { "name": "urn:ogc:def:crs:EPSG::32604" } },
"features": [
{ "type": "Feature", "properties": { "id": 201911191748 }, "geometry": { "type": "MultiLineString", "coordinates": [ [ [ 370785.008047199866269, 7793908.559809340164065 ], [ 371948.415098370984197, 7795736.770889748819172 ], [ 374025.927689748990815, 7797814.283481130376458 ], [ 375771.03826650622068, 7799226.992043266072869 ], [ 376851.344814022770151, 7800224.198087126947939 ], [ 378679.555894434917718, 7801138.303627334535122 ], [ 379676.76193829625845, 7802551.012189471162856 ], [ 382252.877551603945903, 7803963.720751606859267 ], [ 385743.098705117998179, 7806456.735861261375248 ], [ 387986.812303805781994, 7807952.544927053153515 ], [ 389067.118851322738919, 7809282.152985533699393 ], [ 391809.435471941076685, 7809863.856511119753122 ], [ 395881.360151041182689, 7811442.766080564819276 ], [ 399039.179289935214911, 7811359.665576912462711 ], [ 404025.20950924186036, 7810944.163058632984757 ], [ 406435.124115238548256, 7810279.359029394574463 ], [ 409177.440735856944229, 7810113.158022084273398 ], [ 411587.355341855320148, 7809282.152985533699393 ], [ 412584.561385716486257, 7808118.745934362523258 ], [ 414578.973473440273665, 7808700.449459948576987 ], [ 415991.682035576086491, 7809614.555000155232847 ], [ 418152.295130608021282, 7809448.353992843069136 ], [ 420977.712254881975241, 7809448.353992843069136 ], [ 422473.521320673753507, 7810362.459533050656319 ], [ 424301.732401085842866, 7810777.962051326408982 ], [ 427459.551539978594519, 7812356.871620772406459 ], [ 429537.064131357648876, 7812938.575146357528865 ], [ 431863.878233700990677, 7815514.69075966719538 ], [ 436351.305431075918023, 7818506.308891250751913 ] ] ] } }
]
}
