{
"type": "FeatureCollection",
"name": "ice_edge_201911180423",
"crs": { "type": "name", "properties": { "name": "urn:ogc:def:crs:EPSG::32604" } },
"features": [
{ "type": "Feature", "properties": { "id": 201911180423 }, "geometry": { "type": "MultiLineString", "coordinates": [ [ [ 341284.329249638190959, 7759671.15230343490839 ], [ 341949.13327887916239, 7762496.569427707232535 ], [ 343694.243855636683293, 7763826.177486190572381 ], [ 345439.354432393272873, 7765986.790581222623587 ], [ 347184.465009150386322, 7766152.991588534787297 ], [ 348514.073067632212769, 7767648.800654321908951 ], [ 349677.480118803272489, 7769227.710223770700395 ], [ 351007.088177284575067, 7767815.001661634072661 ], [ 351671.892206526128575, 7770640.418785907328129 ], [ 352918.399761352455243, 7772634.830873631872237 ], [ 354580.409834454534575, 7773632.036917492747307 ], [ 355743.81688562646741, 7774546.142457699403167 ], [ 356657.922425832715817, 7776374.353538112714887 ], [ 358486.133506244746968, 7778368.765625833533704 ], [ 359732.641061070549767, 7777787.062100248411298 ], [ 361228.450126863084733, 7780695.579728176817298 ], [ 362474.957681689469609, 7784102.700378036126494 ], [ 363804.565740171121433, 7785183.006925552152097 ], [ 364884.872287686914206, 7786761.916494999080896 ], [ 366214.480346169089898, 7790085.936641204170883 ], [ 367544.088404649868608, 7791747.946714305318892 ], [ 369621.60099602851551, 7793908.559809337370098 ], [ 372530.118623957037926, 7796817.07743726670742 ], [ 376685.143806711945217, 7799725.59506519511342 ], [ 378596.455390779534355, 7801636.90664925891906 ], [ 381754.274529672926292, 7803880.620247950777411 ], [ 385826.199208773265127, 7805542.630321052856743 ], [ 388817.817340357112698, 7807537.042408775538206 ], [ 393055.94302676722873, 7808783.549963601864874 ], [ 396047.561158351250924, 7809199.052481877617538 ], [ 399953.284830141055863, 7807453.941905122250319 ], [ 401282.892888622707687, 7807453.941905119456351 ], [ 403942.109005586011335, 7808284.946941670030355 ], [ 406601.32512254890753, 7809531.454496496357024 ], [ 408928.139224891609047, 7811525.866584219038486 ], [ 410922.551312614814378, 7812938.575146352872252 ], [ 413249.365414957515895, 7811775.168095182627439 ], [ 414329.671962473483291, 7809531.454496497288346 ], [ 416324.084050196339376, 7809199.052481882274151 ], [ 417321.290094057447277, 7807703.243416084907949 ], [ 418567.797648883599322, 7806789.137875880114734 ], [ 420728.410743916640058, 7806789.137875880114734 ], [ 424966.536430326290429, 7808201.846438012085855 ], [ 427376.451036323502194, 7809115.951978221535683 ], [ 430617.370678873441648, 7811027.263562289997935 ], [ 436351.305431075685192, 7814849.886730424128473 ] ] ] } }
]
}
