{
"type": "FeatureCollection",
"name": "ice_edge_11201739",
"crs": { "type": "name", "properties": { "name": "urn:ogc:def:crs:EPSG::32604" } },
"features": [
{ "type": "Feature", "properties": { "id": 201911201739 }, "geometry": { "type": "MultiLineString", "coordinates": [ [ [ 4586.152035030238949, -140207.184679341153242 ], [ 11153.145899808898321, -133327.476821001589997 ], [ 19909.137719513775664, -129574.908898270936334 ], [ 23348.991648683550011, -124571.485001296721748 ], [ 28665.129539218654827, -118942.633117200733977 ], [ 40548.261294532421743, -116440.921168713612133 ], [ 47740.683146432857029, -111437.497271739397547 ], [ 53056.821036967958207, -102681.505452034529299 ], [ 65878.094772964395816, -98616.223535742974491 ], [ 69630.662695695049479, -95801.797593694980606 ], [ 71506.946657060383586, -89860.23171603809169 ], [ 75259.514579791051801, -83918.665838381217327 ], [ 82139.222438130600494, -79227.955934967889334 ], [ 95585.924161248796736, -73911.818044432773604 ], [ 105905.485948758127051, -72035.534083067454048 ], [ 117163.189716950102593, -70159.250121702119941 ], [ 134049.745369238080457, -72973.676063750113826 ], [ 146245.591118112730328, -73911.818044432773604 ], [ 155627.010924939386314, -71722.820089506552904 ], [ 167822.856673814036185, -69846.536128141233348 ], [ 172826.280570788279874, -62966.828269801684655 ], [ 180331.416416249587201, -58588.832359949243255 ], [ 190650.978203758917516, -59214.26034707101644 ], [ 200032.398010585573502, -57337.976385705689609 ] ] ] } }
]
}
