{
"type": "FeatureCollection",
"name": "ice_edge2019080415",
"crs": { "type": "name", "properties": { "name": "urn:ogc:def:crs:EPSG::32604" } },
"features": [
{ "type": "Feature", "properties": { "id": 201911020415 }, "geometry": { "type": "MultiLineString", "coordinates": [ [ [ 349843.681126113864593, 7759172.549281507730484 ], [ 352419.796739422075916, 7762413.468924056738615 ], [ 355328.314367350656539, 7765238.886048329994082 ], [ 357738.228973348625004, 7766817.795617776922882 ], [ 359981.942572036408819, 7769560.112238395027816 ], [ 362142.555667069100309, 7773798.23792480584234 ], [ 364136.967754791548941, 7778534.966633146628737 ], [ 366380.681353479332756, 7782606.891312246210873 ], [ 368375.093441201781388, 7785681.609947484917939 ], [ 371948.415098371217027, 7789504.233115619979799 ], [ 372447.018120301829185, 7791581.745706997811794 ], [ 379095.058412710088305, 7795986.072400717996061 ], [ 384745.892661257064901, 7800390.399094438180327 ], [ 387986.812303806073032, 7803132.715715057216585 ], [ 390978.430435389804188, 7806207.43435029592365 ], [ 394884.154107179667335, 7805127.127802778966725 ], [ 399787.08382283069659, 7803631.318736987188458 ], [ 407598.531166410364676, 7801720.007152919657528 ], [ 417902.99361964315176, 7803298.916722366586328 ], [ 423055.224846259516198, 7805791.931832020170987 ], [ 436185.10442376579158, 7812689.273635393939912 ] ] ] } }
]
}
