{
"type": "FeatureCollection",
"name": "ice_edge_201911220406",
"crs": { "type": "name", "properties": { "name": "urn:ogc:def:crs:EPSG::32604" } },
"features": [
{ "type": "Feature", "properties": { "id": 201911220306 }, "geometry": { "type": "MultiLineString", "coordinates": [ [ [ 343611.143351980717853, 7760003.554318054579198 ], [ 349178.877096872776747, 7767482.599647014401853 ], [ 352170.495228457031772, 7769975.614756668917835 ], [ 354912.811849074671045, 7773465.835910182446241 ], [ 356159.319403901929036, 7776956.057063696905971 ], [ 358070.630987968877889, 7781775.886275693774223 ], [ 360148.143579346360639, 7785930.911458447575569 ], [ 361727.053148793755099, 7789088.73059734236449 ], [ 364053.867251136340201, 7791581.745706993155181 ], [ 366463.781857134192251, 7794407.162831269204617 ], [ 369039.897470442287158, 7796152.273408024571836 ], [ 370452.606032579671592, 7797481.881466507911682 ], [ 374109.028193403966725, 7799393.193050575442612 ], [ 376602.043303056852892, 7800473.499598092399538 ], [ 381172.571004087396432, 7802966.514707744121552 ], [ 381920.475536983576603, 7804462.323773536831141 ], [ 378014.751865193829872, 7805459.529817397706211 ], [ 374524.530711679137312, 7806207.434350287541747 ], [ 377349.947835952567402, 7807869.444423394277692 ], [ 380009.16395291587105, 7810528.660540357232094 ], [ 382751.480573534325231, 7811276.565073255449533 ], [ 386823.405252634140197, 7811858.26859884057194 ], [ 391061.530939044663683, 7811525.866584219038486 ], [ 397875.772238762816414, 7810030.057518426328897 ], [ 401781.495910552795976, 7808118.745934360660613 ], [ 406933.727137169160414, 7806041.233342982828617 ], [ 412418.360378406010568, 7805708.831328363157809 ], [ 415991.682035575271584, 7806373.635357601568103 ], [ 419232.601678124687169, 7806373.635357604362071 ], [ 422224.219809708418325, 7807537.042408775538206 ], [ 424467.933408396143932, 7808284.946941670030355 ], [ 427708.85305094497744, 7808617.348956292495131 ], [ 429537.064131357823499, 7811027.263562289997935 ], [ 431780.777730045549106, 7812356.871620769612491 ], [ 433608.988810456998181, 7813852.68068656232208 ], [ 436351.305431075510569, 7814517.484715803526342 ] ] ] } }
]
}
