{
"type": "FeatureCollection",
"name": "ice_edge_201911250418",
"crs": { "type": "name", "properties": { "name": "urn:ogc:def:crs:EPSG::32604" } },
"features": [
{ "type": "Feature", "properties": { "id": 201911250418 }, "geometry": { "type": "MultiLineString", "coordinates": [ [ [ 333306.680898748280015, 7762912.071945984847844 ], [ 335882.79651205643313, 7763659.976478881202638 ], [ 338126.510110744216945, 7765903.690077568404377 ], [ 341284.329249638132751, 7766983.996625085361302 ], [ 342863.238819085119758, 7768396.705187221989036 ], [ 342447.736300809599925, 7770391.117274944670498 ], [ 345439.354432393272873, 7771222.122311495244503 ], [ 348514.073067632096354, 7771970.026844391599298 ], [ 351505.69119921582751, 7772801.031880942173302 ], [ 353666.304294248460792, 7773632.036917493678629 ], [ 354414.208827144408133, 7775958.8510198360309 ], [ 355411.414871005632449, 7777870.162603903561831 ], [ 355577.615878315875307, 7779781.474187971092761 ], [ 358403.033002589363605, 7781111.082246452569962 ], [ 359566.440053760772571, 7780446.2782172113657 ], [ 360314.344586656719912, 7781360.38375741802156 ], [ 361477.751637828128878, 7782606.891312244348228 ], [ 362391.857178034260869, 7783354.795845140703022 ], [ 363555.264229205728043, 7784850.604910932481289 ], [ 363887.666243826155551, 7785847.810954793356359 ], [ 364053.867251136340201, 7786928.117502309381962 ], [ 366546.882360789459199, 7790169.037144858390093 ], [ 365632.776820583327208, 7791581.745706995017827 ], [ 367211.686390030256007, 7794074.760816648602486 ], [ 369039.897470442519989, 7794407.162831269204617 ], [ 370618.807039889506996, 7793825.459305683150887 ], [ 372031.515602026251145, 7795404.368875130079687 ], [ 371616.013083750731312, 7797315.680459197610617 ], [ 372280.81711299152812, 7797564.981970163062215 ], [ 374192.128697058884427, 7797066.378948232159019 ], [ 376851.344814022188075, 7796235.373911681585014 ], [ 378845.756901744694915, 7797481.881466507911682 ], [ 381255.67150774266338, 7798728.38902133423835 ], [ 382585.279566224315204, 7799226.992043265141547 ], [ 384164.189135671244003, 7799808.695568850263953 ], [ 384828.993164912099019, 7800889.002116367220879 ], [ 385992.400216083507985, 7803049.615211399272084 ], [ 387072.706763599882834, 7803963.720751605927944 ], [ 388236.1138147712918, 7804462.323773536831141 ], [ 389565.721873252943624, 7804960.926795466803014 ], [ 389981.224391528463457, 7805958.132839328609407 ], [ 390562.92791711416794, 7806955.338883189484477 ], [ 390895.329931734595448, 7808284.946941670961678 ], [ 395050.35511448973557, 7812190.670613461174071 ], [ 400534.988355726527516, 7811442.766080564819276 ], [ 406102.722100618411787, 7809863.856511117890477 ], [ 409925.345268753182609, 7809531.454496497288346 ], [ 415077.576495369547047, 7807537.042408775538206 ], [ 416739.586568471568171, 7808451.147948981262743 ], [ 414662.073977094027214, 7814018.881693873554468 ], [ 414911.375488059304189, 7816594.997307181358337 ], [ 416407.184553851198871, 7815763.992270630784333 ], [ 418983.300167159351986, 7811110.364065944217145 ], [ 420977.712254881858826, 7808368.047445326112211 ], [ 423304.526357224734966, 7807703.243416085839272 ], [ 427044.049021704355255, 7808284.946941670961678 ], [ 427875.054058255394921, 7809863.856511117890477 ], [ 428539.858087496191729, 7810944.163058634847403 ], [ 429952.566649632935878, 7811858.26859884057194 ], [ 431863.878233700350393, 7813520.278671942651272 ], [ 434190.692336043226533, 7815265.389248699881136 ], [ 436102.00392011058284, 7815930.193277941085398 ] ] ] } }
]
}
