{
"type": "FeatureCollection",
"name": "ice_edge_201911230337",
"crs": { "type": "name", "properties": { "name": "urn:ogc:def:crs:EPSG::32604" } },
"features": [
{ "type": "Feature", "properties": { "id": 201911230337 }, "geometry": { "type": "MultiLineString", "coordinates": [ [ [ 96622.253605537320254, -75946.051334313378902 ], [ 98895.556083065806888, -75093.562905240207328 ], [ 100316.370131521107396, -73767.4697933485877 ], [ 102494.95167248591315, -72536.097618020648952 ], [ 105904.905388778643101, -71967.771998638534569 ], [ 110640.952216962992679, -71778.330125511158258 ], [ 113293.138440746231936, -72062.492935202215449 ], [ 116324.208410784209264, -73199.144173966458766 ], [ 121060.255238968558842, -73956.911666475964012 ], [ 126648.790496226094547, -73483.306983657515957 ], [ 131384.837324410444126, -73293.865110530154197 ], [ 137920.581947304861387, -75093.562905240207328 ], [ 142561.907838925515534, -76324.935080568131525 ], [ 144835.210316454002168, -75756.609461186017143 ], [ 145877.140618654550053, -73009.702300839082454 ], [ 148529.32684243778931, -72536.097618020648952 ], [ 151465.67587591210031, -74619.958222421759274 ], [ 154496.745845950063085, -74904.121032112831017 ], [ 161790.257961353985593, -78882.40036778767535 ], [ 174293.421587760647526, -78219.353811841865536 ], [ 184807.445546329923673, -74335.795412730702083 ], [ 199583.911650265101343, -67421.16704358154675 ] ] ] } }
]
}
