{
"type": "FeatureCollection",
"name": "ice_edge_201911260420",
"crs": { "type": "name", "properties": { "name": "urn:ogc:def:crs:EPSG::32604" } },
"features": [
{ "type": "Feature", "properties": { "id": 201911250420 }, "geometry": { "type": "MultiLineString", "coordinates": [ [ [ 3245.653116028567183, -115778.978980263244011 ], [ 5466.76311602856731, -114609.973717105342075 ], [ 7220.271010765409301, -115194.476348684300319 ], [ 10259.684694975936509, -115895.87950657903275 ], [ 11428.689958133831169, -114843.774769736919552 ], [ 10844.187326554883839, -111102.95792763166537 ], [ 15987.810484449619253, -111102.95792763166537 ], [ 20313.129958133831678, -110986.057401315876632 ], [ 22066.637852870673669, -110284.65424342112965 ], [ 23001.842063396987214, -107128.34003289481916 ], [ 26859.559431818041048, -106310.036348684297991 ], [ 31301.779431818042212, -107362.141085526396637 ], [ 33172.187852870672941, -110635.355822368510417 ], [ 36211.601537081201968, -110167.753717105340911 ], [ 36913.004694975934399, -107362.141085526396637 ], [ 38315.811010765413812, -105842.434243421143037 ], [ 37380.606800239096629, -103153.72213815797295 ], [ 36913.004694975934399, -100932.612138157972367 ], [ 36796.10416866014566, -98010.098980263239355 ], [ 38315.811010765413812, -95788.988980263238773 ], [ 43459.434168660147407, -92398.873717105350806 ], [ 47784.753642344359832, -90762.266348684293916 ], [ 52226.973642344360997, -91580.570032894815085 ], [ 53746.680484449621872, -89242.559506579025765 ], [ 53279.078379186466918, -85384.842138157982845 ], [ 56318.492063396988669, -84332.737401315869647 ], [ 61228.314168660144787, -82111.627401315869065 ], [ 65436.733116028568475, -81059.522664473770419 ], [ 64969.131010765413521, -77201.805296052712947 ], [ 69645.152063396992162, -76383.501611842191778 ], [ 73035.267326554880128, -76032.800032894825563 ], [ 77009.885221291726339, -77201.805296052712947 ], [ 81569.005747607516241, -75682.098453947444796 ], [ 82387.30943181803741, -73928.590559210613719 ], [ 86712.628905502249836, -72642.684769736923045 ], [ 91622.451010765405954, -70772.276348684288678 ], [ 95947.77048444961838, -70538.475296052711201 ], [ 101442.095221291732742, -69369.470032894823817 ], [ 106001.215747607522644, -68200.46476973692188 ], [ 107988.524694975945749, -67499.06161184218945 ], [ 111495.540484449622454, -65277.951611842188868 ], [ 116989.865221291722264, -64342.747401315871684 ], [ 120730.682063396990998, -64810.349506579026638 ], [ 129264.420484449627111, -70421.574769736922462 ], [ 135343.247852870670613, -70304.674243421133724 ], [ 140954.473116028559161, -68434.265822368499357 ], [ 144812.190484449616633, -66680.757927631668281 ], [ 147617.803116028575459, -63524.443717105343239 ], [ 149488.211537081195274, -60251.228980263244011 ], [ 150423.415747607505182, -57094.914769736926246 ], [ 151241.719431818055455, -55107.605822368503141 ], [ 161762.766800239100121, -58497.721085526398383 ] ] ] } }
]
}
