{
"type": "FeatureCollection",
"name": "ice_edge_2019201739",
"crs": { "type": "name", "properties": { "name": "urn:ogc:def:crs:EPSG::32604" } },
"features": [
{ "type": "Feature", "properties": { "id": 201911201739 }, "geometry": { "type": "MultiLineString", "coordinates": [ [ [ 334553.188453574839514, 7760585.257843642495573 ], [ 336713.801548607472796, 7762330.368420398794115 ], [ 337461.706081503420137, 7765488.187559293583035 ], [ 340536.424716742243618, 7768147.403676256537437 ], [ 342198.434789844264742, 7770058.715260324068367 ], [ 343029.439826395304408, 7772634.830873631872237 ], [ 346685.861987219832372, 7774379.941450389102101 ], [ 351671.89220652601216, 7777039.157567352056503 ], [ 353749.404797903611325, 7778867.368647764436901 ], [ 354829.711345419927966, 7781111.082246452569962 ], [ 356657.922425832191948, 7782523.790808589197695 ], [ 358403.033002589363605, 7785016.805918242782354 ], [ 360896.048112242424395, 7787343.620020585134625 ], [ 363056.661207275115885, 7790418.338655823841691 ], [ 365715.877324238419533, 7791664.846210650168359 ], [ 367710.289411960868165, 7792828.253261822275817 ], [ 368208.892433891480323, 7794988.866356854327023 ], [ 369704.701499683316797, 7798063.584992093965411 ], [ 370618.807039889506996, 7800057.997079815715551 ], [ 373527.324667818087619, 7802052.409167538397014 ], [ 376851.344814022188075, 7803548.218233330175281 ], [ 378264.053376158932224, 7804960.926795466803014 ], [ 378845.756901744694915, 7806124.333846638910472 ], [ 383000.782084499835037, 7808617.348956291563809 ], [ 384995.194172222283669, 7808783.549963601864874 ], [ 387072.706763599882834, 7810279.359029393643141 ], [ 389981.224391528463457, 7811276.565073254518211 ], [ 391975.636479250912089, 7811027.263562289997935 ], [ 394053.149070628511254, 7810694.861547669395804 ], [ 396379.963172971387394, 7809946.95701477304101 ], [ 397958.872742418316193, 7808949.75097091216594 ], [ 402778.701954414311331, 7808035.64543070551008 ], [ 405022.415553102095146, 7808284.946941670961678 ], [ 407266.129151789878961, 7808949.75097091216594 ], [ 410673.249801649071742, 7809614.555000152438879 ], [ 413166.26491130219074, 7809780.756007462739944 ], [ 415825.48102826543618, 7811110.364065944217145 ], [ 419315.702181779779494, 7811692.067591530270875 ], [ 420811.511247571615968, 7813686.479679252952337 ], [ 421559.415780467563309, 7816179.494788905605674 ], [ 424717.234919361479115, 7818672.509898559190333 ], [ 429453.96362770232372, 7819337.313927799463272 ], [ 436351.305431075859815, 7820002.117957040667534 ] ] ] } }
]
}
